NORAD_CAT_ID,OBJECT_NAME,OBJECT_TYPE,EPOCH,MEAN_MOTION,ECCENTRICITY,INCLINATION,RA_OF_ASC_NODE,ARG_OF_PERICENTER,MEAN_ANOMALY,BSTAR,MEAN_MOTION_DOT,MEAN_MOTION_DDOT,TLE_LINE0,TLE_LINE1,TLE_LINE2,SEMIMAJOR_AXIS,PERIOD,APOGEE,PERIGEE,DECAYED
53845.0,STARLINK-4753,PAYLOAD,2024-03-21 20:39:02,15.08853004,0.0001331,53.2163,276.6113,106.8981,253.2157,8.6095e-05,1.083e-05,0.0,0 STARLINK-4753,1 53845U 22114AD  24081.86044686  .00001083  00000-0  86095-4 0  9996,2 53845  53.2163 276.6113 0001331 106.8981 253.2157 15.08853004 84061,6917.841,95.437,540.626,538.785,0.0
53845.0,STARLINK-4753,PAYLOAD,2024-03-22 12:32:54,15.08839057,0.0001354,53.2176,273.637,87.1045,273.0102,0.00018816,2.708e-05,0.0,0 STARLINK-4753,1 53845U 22114AD  24082.52285484  .00002708  00000-0  18816-3 0  9993,2 53845  53.2176 273.6370 0001354  87.1045 273.0102 15.08839057 84167,6917.883,95.438,540.685,538.812,0.0
53845.0,STARLINK-4753,PAYLOAD,2024-03-22 22:05:12,15.08852889,0.0001327,53.2155,271.8525,87.3822,272.7323,0.00025131,3.715e-05,0.0,0 STARLINK-4753,1 53845U 22114AD  24082.92028797  .00003715  00000-0  25131-3 0  9996,2 53845  53.2155 271.8525 0001327  87.3822 272.7323 15.08852889 84766,6917.841,95.437,540.624,538.788,0.0
53845.0,STARLINK-4753,PAYLOAD,2024-03-23 18:45:14,15.08840205,0.0001282,53.2153,267.9882,96.6193,263.4945,6.7453e-05,7.86e-06,0.0,0 STARLINK-4753,1 53845U 22114AD  24083.78141615  .00000786  00000-0  67453-4 0  9995,2 53845  53.2153 267.9882 0001282  96.6193 263.4945 15.08840205 84351,6917.88,95.438,540.632,538.858,0.0
53845.0,STARLINK-4753,PAYLOAD,2024-03-24 12:14:29,15.08839137,0.0001415,53.2163,264.714,100.4075,259.7077,2.6428e-07,-2.84e-06,0.0,0 STARLINK-4753,1 53845U 22114AD  24084.51005854 -.00000284  00000-0  26428-6 0  9994,2 53845  53.2163 264.7140 0001415 100.4075 259.7077 15.08839137 85004,6917.883,95.438,540.727,538.769,0.0
53845.0,STARLINK-4753,PAYLOAD,2024-03-24 18:36:01,15.08844823,0.0001332,53.2157,263.5237,89.6035,270.511,0.00011512,1.545e-05,0.0,0 STARLINK-4753,1 53845U 22114AD  24084.77501705  .00001545  00000-0  11512-3 0  9993,2 53845  53.2157 263.5237 0001332  89.6035 270.5110 15.08844823 85044,6917.866,95.437,540.652,538.809,0.0
53845.0,STARLINK-4753,PAYLOAD,2024-03-25 12:05:16,15.08846801,0.0001354,53.2162,260.2537,86.5525,273.5622,0.00028032,4.177e-05,0.0,0 STARLINK-4753,1 53845U 22114AD  24085.50366026  .00004177  00000-0  28032-3 0  9999,2 53845  53.2162 260.2537 0001354  86.5525 273.5622 15.08846801 84612,6917.86,95.437,540.661,538.788,0.0
53845.0,STARLINK-4753,PAYLOAD,2024-03-25 18:26:48,15.08857174,0.0001381,53.2161,259.0649,83.5175,276.5974,0.00051538,7.928e-05,0.0,0 STARLINK-4753,1 53845U 22114AD  24085.76861726  .00007928  00000-0  51538-3 0  9998,2 53845  53.2161 259.0649 0001381  83.5175 276.5974 15.08857174 85191,6917.828,95.436,540.648,538.738,0.0
53845.0,STARLINK-4753,PAYLOAD,2024-03-26 03:59:06,15.08879603,0.0001478,53.2172,257.2802,82.4812,277.6349,0.00089993,0.00014079,0.0,0 STARLINK-4753,1 53845U 22114AD  24086.16604570  .00014079  00000-0  89993-3 0  9996,2 53845  53.2172 257.2802 0001478  82.4812 277.6349 15.08879603 84713,6917.759,95.435,540.647,538.602,0.0
53845.0,STARLINK-4753,PAYLOAD,2024-03-26 15:06:48,15.08841944,4.72e-05,53.216,255.1978,302.7459,57.3487,-0.00020093,-3.484e-05,0.0,0 STARLINK-4753,1 53845U 22114AD  24086.62972592 -.00003484  00000-0 -20093-3 0  9995,2 53845  53.2160 255.1978 0000472 302.7459  57.3487 15.08841944 85320,6917.874,95.437,540.066,539.413,0.0
53845.0,STARLINK-4753,PAYLOAD,2024-03-26 18:17:34,15.08835066,0.0001102,53.217,254.6039,71.4254,288.6858,-0.00060698,-9.933e-05,0.0,0 STARLINK-4753,1 53845U 22114AD  24086.76220779 -.00009933  00000-0 -60698-3 0  9993,2 53845  53.2170 254.6039 0001102  71.4254 288.6858 15.08835066 84808,6917.895,95.438,540.523,538.998,0.0
53845.0,STARLINK-4753,PAYLOAD,2024-03-27 03:49:54,15.0882013,0.000132,53.2148,252.8209,81.3993,278.7149,-0.00080814,-0.00013119,0.0,0 STARLINK-4753,1 53845U 22114AD  24087.15965445 -.00013119  00000-0 -80814-3 0  9996,2 53845  53.2148 252.8209 0001320  81.3993 278.7149 15.08820130 84869,6917.941,95.439,540.719,538.893,0.0
53845.0,STARLINK-4753,PAYLOAD,2024-03-27 14:57:37,15.08802136,0.0001435,53.2157,250.741,93.379,266.7366,-0.00064457,-0.00010521,0.0,0 STARLINK-4753,1 53845U 22114AD  24087.62334801 -.00010521  00000-0 -64457-3 0  9993,2 53845  53.2157 250.7410 0001435  93.3790 266.7366 15.08802136 85477,6917.996,95.44,540.854,538.868,0.0
53845.0,STARLINK-4753,PAYLOAD,2024-03-27 19:43:47,15.08813423,0.0001459,53.2171,249.8489,95.1786,264.9373,-0.00037552,-6.255e-05,0.0,0 STARLINK-4753,1 53845U 22114AD  24087.82207218 -.00006255  00000-0 -37552-3 0  9991,2 53845  53.2171 249.8489 0001459  95.1786 264.9373 15.08813423 85502,6917.962,95.439,540.836,538.817,0.0
53845.0,STARLINK-4753,PAYLOAD,2024-03-28 03:40:42,15.0882283,0.0001331,53.2166,248.3611,87.2984,272.816,-3.1854e-05,-7.95e-06,0.0,0 STARLINK-4753,1 53845U 22114AD  24088.15327427 -.00000795  00000-0 -31854-4 0  9996,2 53845  53.2166 248.3611 0001331  87.2984 272.8160 15.08822830 85018,6917.933,95.439,540.719,538.877,0.0
53845.0,STARLINK-4753,PAYLOAD,2024-03-28 10:02:15,15.08824875,0.0001161,53.216,247.1702,86.8735,273.239,0.00042819,6.531e-05,0.0,0 STARLINK-4753,1 53845U 22114AD  24088.41823915  .00006531  00000-0  42819-3 0  9992,2 53845  53.2160 247.1702 0001161  86.8735 273.2390 15.08824875 85594,6917.927,95.439,540.595,538.988,0.0
53845.0,STARLINK-4753,PAYLOAD,2024-03-28 19:34:34,15.08848208,0.0001245,53.2157,245.3867,85.0736,275.0399,0.0011792,0.00018533,0.0,0 STARLINK-4753,1 53845U 22114AD  24088.81567935  .00018533  00000-0  11792-2 0  9993,2 53845  53.2157 245.3867 0001245  85.0736 275.0399 15.08848208 85110,6917.855,95.437,540.582,538.859,0.0
53845.0,STARLINK-4753,PAYLOAD,2024-03-29 09:53:02,15.08863325,0.0001209,53.2151,242.7103,83.5061,276.6069,0.00077727,0.00012112,0.0,0 STARLINK-4753,1 53845U 22114AD  24089.41183231  .00012112  00000-0  77727-3 0  9991,2 53845  53.2151 242.7103 0001209  83.5061 276.6069 15.08863325 85749,6917.809,95.436,540.51,538.838,0.0
53845.0,STARLINK-4753,PAYLOAD,2024-03-29 16:14:34,15.08875809,0.0001258,53.2156,241.5213,81.8445,278.269,0.0010775,0.00016919,0.0,0 STARLINK-4753,1 53845U 22114AD  24089.67678727  .00016919  00000-0  10775-2 0  9996,2 53845  53.2156 241.5213 0001258  81.8445 278.2690 15.08875809 85786,6917.771,95.435,540.506,538.766,0.0
53845.0,STARLINK-4753,PAYLOAD,2024-03-30 03:22:15,15.0887455,4.09e-05,53.215,239.4379,122.6195,237.4837,0.00084907,0.00013264,0.0,0 STARLINK-4753,1 53845U 22114AD  24090.14045804  .00013264  00000-0  84907-3 0  9993,2 53845  53.2150 239.4379 0000409 122.6195 237.4837 15.08874550 85313,6917.775,95.435,539.923,539.357,0.0
53845.0,STARLINK-4753,PAYLOAD,2024-03-30 14:29:57,15.08844784,9.59e-05,53.2137,237.3578,96.2453,263.8648,-9.9792e-05,-1.876e-05,0.0,0 STARLINK-4753,1 53845U 22114AD  24090.60414140 -.00001876  00000-0 -99792-4 0  9994,2 53845  53.2137 237.3578 0000959  96.2453 263.8648 15.08844784 85925,6917.866,95.437,540.394,539.067,0.0
53845.0,STARLINK-4753,PAYLOAD,2024-03-30 19:16:07,15.08849271,0.0001406,53.2133,236.4649,98.9778,261.1374,0.00040516,6.168e-05,0.0,0 STARLINK-4753,1 53845U 22114AD  24090.80286225  .00006168  00000-0  40516-3 0  9993,2 53845  53.2133 236.4649 0001406  98.9778 261.1374 15.08849271 85414,6917.852,95.437,540.69,538.744,0.0
53845.0,STARLINK-4753,PAYLOAD,2024-03-31 12:45:21,15.08846649,0.0001494,53.2127,233.1929,100.7452,259.3709,0.00033029,4.973e-05,0.0,0 STARLINK-4753,1 53845U 22114AD  24091.53150255  .00004973  00000-0  33029-3 0  9990,2 53845  53.2127 233.1929 0001494 100.7452 259.3709 15.08846649 85529,6917.86,95.437,540.759,538.692,0.0
53845.0,STARLINK-4753,PAYLOAD,2024-03-31 14:20:44,15.088526,0.0001245,53.2162,232.8977,88.5444,271.569,0.00025991,3.852e-05,0.0,0 STARLINK-4753,1 53845U 22114AD  24091.59773968  .00003852  00000-0  25991-3 0  9992,2 53845  53.2162 232.8977 0001245  88.5444 271.5690 15.08852600 86075,6917.842,95.437,540.568,538.846,0.0
53845.0,STARLINK-4753,PAYLOAD,2024-03-31 15:56:07,15.08851998,0.0001365,53.2154,232.5993,93.7239,266.3909,0.000468,7.171e-05,0.0,0 STARLINK-4753,1 53845U 22114AD  24091.66398021  .00007171  00000-0  46800-3 0  9993,2 53845  53.2154 232.5993 0001365  93.7239 266.3909 15.08851998 86089,6917.844,95.437,540.653,538.764,0.0
53845.0,STARLINK-4753,PAYLOAD,2024-04-01 12:36:09,15.08836625,0.0001247,53.215,228.7321,90.4265,269.687,0.00010805,1.432e-05,0.0,0 STARLINK-4753,1 53845U 22114AD  24092.52510830  .00001432  00000-0  10805-3 0  9993,2 53845  53.2150 228.7321 0001247  90.4265 269.6870 15.08836625 85676,6917.891,95.438,540.618,538.893,0.0
53845.0,STARLINK-4753,PAYLOAD,2024-04-01 14:11:32,15.08836388,0.0001235,53.215,228.4346,93.5229,266.5905,0.00010176,1.332e-05,0.0,0 STARLINK-4753,1 53845U 22114AD  24092.59134841  .00001332  00000-0  10176-3 0  9994,2 53845  53.2150 228.4346 0001235  93.5229 266.5905 15.08836388 86224,6917.891,95.438,540.611,538.902,0.0
53845.0,STARLINK-4753,PAYLOAD,2024-04-02 12:26:56,15.08847401,0.0001282,53.2165,224.2732,96.0296,264.0842,0.00034001,5.129e-05,0.0,0 STARLINK-4753,1 53845U 22114AD  24093.51870646  .00005129  00000-0  34001-3 0  9998,2 53845  53.2165 224.2732 0001282  96.0296 264.0842 15.08847401 86363,6917.858,95.437,540.61,538.836,0.0
53845.0,STARLINK-4753,PAYLOAD,2024-04-02 15:37:42,15.08855489,0.0001318,53.217,223.6817,97.2604,262.8538,0.00052637,8.103e-05,0.0,0 STARLINK-4753,1 53845U 22114AD  24093.65118368  .00008103  00000-0  52637-3 0  9999,2 53845  53.2170 223.6817 0001318  97.2604 262.8538 15.08855489 85847,6917.833,95.437,540.61,538.786,0.0
53845.0,STARLINK-4753,PAYLOAD,2024-04-03 01:10:01,15.08845441,0.0001329,53.216,221.8954,87.6156,272.4988,0.00037655,5.711e-05,0.0,0 STARLINK-4753,1 53845U 22114AD  24094.04862655  .00005711  00000-0  37655-3 0  9993,2 53845  53.2160 221.8954 0001329  87.6156 272.4988 15.08845441 85905,6917.864,95.437,540.648,538.809,0.0
